{"type":"FeatureCollection","features":[{"type":"Feature","properties":{},"geometry":{"type":"Polygon","coordinates":[[[81.9,27.7],[82.7,27.7],[82.7,28.5],[81.9,28.5],[81.9,27.7]],[[82.2784778423,28.2479109748],[82.2792524248,28.2478721768],[82.2797695423,28.2479282418],[82.2804470062,28.2481041404],[82.2807169723,28.2481742332],[82.280975311,28.2482124206],[82.2814063773,28.2482106143],[82.2817503324,28.2481532501],[82.2822670782,28.2480175819],[82.282783263,28.247728554],[82.2829551785,28.2476705609],[82.2835146108,28.2472682307],[82.2837093535,28.2471651309],[82.2839873644,28.2470179488],[82.2844605524,28.2468623445],[82.2845112644,28.2468512848],[82.2846333427,28.2468246628],[82.2849772345,28.2468236682],[82.2852357003,28.2467648649],[82.2856662696,28.2466118842],[82.2861826757,28.2463142842],[82.2862671328,28.2462656123],[82.28652354,28.2460353873],[82.2868873704,28.2457861026],[82.2871659606,28.2456526184],[82.2878533678,28.24567094],[82.2881110821,28.2457091272],[82.2882827463,28.2456895066],[82.2886265114,28.2457290708],[82.2889702759,28.2458228797],[82.2894009641,28.2459947454],[82.2895511308,28.2460903003],[82.2895946854,28.2461666069],[82.2896807347,28.2462244159],[82.2896986067,28.2462332893],[82.2897697523,28.2462646083],[82.2899393859,28.2463392838],[82.2901556652,28.2465290201],[82.2905655437,28.2467191326],[82.2910825349,28.2468135066],[82.2915985279,28.24682895],[82.2920289083,28.246770711],[82.292544404,28.2465763619],[82.2928840825,28.2463920943],[82.2931453913,28.2462503385],[82.2932314424,28.2462495262],[82.2934889735,28.2461140431],[82.2940050936,28.2459783134],[82.2943909212,28.2457084676],[82.2949066049,28.2455344296],[82.2957676128,28.2455894354],[82.2962834827,28.2454897656],[82.2965411372,28.245412901],[82.2967984179,28.2452029245],[82.2970561983,28.2450854388],[82.2973144764,28.2450649446],[82.2977446056,28.2450833859],[82.2979169564,28.2451201344],[82.2983485193,28.2453099986],[82.2984130095,28.2453861187],[82.2987577117,28.2454437431],[82.2989298134,28.2454601187],[82.2990824739,28.2455283717],[82.299102726,28.2455374269],[82.2997717532,28.2459349004],[82.3000299061,28.2459549642],[82.3002879962,28.2459141588],[82.3005457771,28.2457989233],[82.3007601877,28.2456254422],[82.3008879877,28.245396403],[82.3007352672,28.2449376932],[82.3006905291,28.2445546019],[82.3007966453,28.2443258114],[82.301118045,28.2439979096],[82.301246031,28.2437869296],[82.3012434163,28.243252292],[82.3013691007,28.2424864263],[82.3013243638,28.2421033359],[82.3013213751,28.2414921413],[82.3013121824,28.2414288232],[82.3012546432,28.2410324951],[82.3011239179,28.240650278],[82.3010999291,28.2401926944],[82.3011633618,28.2399619053],[82.3011591921,28.2390438631],[82.3012360521,28.2387650844],[82.3013281819,28.2384309222],[82.3013485585,28.238123949],[82.3013038838,28.2377431722],[82.3012499457,28.2375546297],[82.3010631825,28.2369018073],[82.3010396915,28.2365952732],[82.301124498,28.2362899272],[82.3013625015,28.235962926],[82.3014452125,28.235849285],[82.3015299574,28.2355416891],[82.3016153234,28.2353874543],[82.3017419415,28.2348516299],[82.3017404449,28.2346238389],[82.3016777601,28.2344030629],[82.3016752707,28.2343942963],[82.3016947752,28.2340107068],[82.3016286645,28.2337045477],[82.3017142807,28.2335706222],[82.3019499395,28.2334172653],[82.302143414,28.2333590227],[82.3022507145,28.2332249111],[82.3022498428,28.2330511774],[82.3021398657,28.232594343],[82.302267914,28.232439796],[82.3025043855,28.2323043746],[82.3026762376,28.2322463823],[82.3031061822,28.2321497716],[82.3034702152,28.2321749446],[82.3036223612,28.2321854641],[82.3037087242,28.2321665928],[82.3043949522,28.2317810748],[82.3044682105,28.2317481737],[82.3047387829,28.231626657],[82.3049963755,28.2315497922],[82.3054259464,28.2313177576],[82.3057704615,28.2313731945],[82.3062858312,28.2312374644],[82.3068021381,28.2311783523],[82.3074901702,28.2311559894],[82.3078802309,28.2312014779],[82.3084377278,28.2312664924],[82.3087818676,28.2313421774],[82.309126943,28.2314944814],[82.3095580705,28.231607665],[82.3099023989,28.2316426669],[82.3100745009,28.2316049847],[82.3101171213,28.2315481789],[82.3102008063,28.2310488509],[82.3102861724,28.2308969281],[82.3107577406,28.2305111582],[82.3108431078,28.2303591728],[82.3108852285,28.2302618077],[82.3108832996,28.2298422207],[82.3109276454,28.229761886],[82.3110109736,28.2296109315],[82.3111331312,28.2294728919],[82.3112465098,28.2293447715],[82.3113741837,28.2291134188],[82.3115669736,28.2289424379],[82.3117375788,28.2287310218],[82.3119499336,28.2282913783],[82.3119709965,28.2281400172],[82.3119913719,28.2279300366],[82.3118990727,28.2276721961],[82.3118819554,28.227624375],[82.3118169027,28.2275662556],[82.3117519768,28.2274135178],[82.3117940994,28.2272619692],[82.3119225837,28.227145732],[82.3120441455,28.2270781581],[82.3122653526,28.2269551921],[82.3123505314,28.2268393295],[82.3124320987,28.2259610357],[82.3125379032,28.2256555024],[82.3125780931,28.2251971705],[82.3125345384,28.2251209262],[82.3124771873,28.2250872659],[82.3119521855,28.2247791369],[82.3118873834,28.2246827078],[82.3120795501,28.2244147348],[82.3125079351,28.22409027],[82.3125497457,28.2239184747],[82.3124197027,28.2238046701],[82.3122676671,28.223499321],[82.3123313486,28.2233453367],[82.3124817047,28.2232491602],[82.3128464075,28.2231351143],[82.3132560356,28.2233635351],[82.3140313639,28.2236087126],[82.3146332828,28.2236277196],[82.3151503977,28.2237400894],[82.3160104055,28.2237769128],[82.3164409081,28.2238900958],[82.3168722208,28.2241183319],[82.3180786142,28.2245171868],[82.3184393424,28.2245906263],[82.3187238994,28.2246485588],[82.3187936981,28.2246588595],[82.3189822386,28.2246866855],[82.3190038599,28.2246864977],[82.3190632385,28.2247107608],[82.3192841963,28.224801053],[82.3195420972,28.2248571765],[82.319800625,28.2248569926],[82.3199424271,28.2248221009],[82.3216040147,28.2244132465],[82.3219475937,28.2243918789],[82.3224645836,28.224544747],[82.3231542974,28.2248674161],[82.3234980012,28.2248099252],[82.323928006,28.2248261181],[82.3243580736,28.2247497557],[82.3253035724,28.2247473951],[82.325647339,28.2246898433],[82.325991605,28.2247272193],[82.326336181,28.2248411506],[82.3267246863,28.2251058198],[82.3268809945,28.2251757293],[82.3268975365,28.2251831283],[82.3270695115,28.225240063],[82.3274133411,28.225238943],[82.3277348633,28.2250847112],[82.327787044,28.2250242197],[82.327799605,28.2250096574],[82.3283777849,28.2246070149],[82.3287208025,28.2244909052],[82.3289782711,28.2243575458],[82.3297509821,28.2241831357],[82.3300951859,28.2241640172],[82.330696482,28.2240272886],[82.3310402491,28.2240262306],[82.3313600784,28.2240952923],[82.3316429775,28.224157978],[82.3321589687,28.2242318543],[82.3324161843,28.2242316079],[82.3331030307,28.2241143775],[82.3337884444,28.2237851683],[82.3341322728,28.2237840487],[82.3344765991,28.2238776692],[82.3345928126,28.2238856917],[82.3347346894,28.2238954838],[82.3349918432,28.223836555],[82.3350460472,28.2238092863],[82.3353348003,28.2236640143],[82.3358489844,28.22348985],[82.336020774,28.2234881647],[82.3363490243,28.2235595208],[82.3367952911,28.2236565353],[82.3372245471,28.2236162325],[82.3374602677,28.2234808738],[82.3375661325,28.2232317095],[82.3377582974,28.2230222944],[82.3377654352,28.2230050295],[82.3378856614,28.2227142631],[82.3382061226,28.2224269187],[82.3384632155,28.2223116203],[82.3388924705,28.2222713178],[82.3389568997,28.2222323223],[82.3392533517,28.2221684993],[82.3394070917,28.2221354007],[82.3394930185,28.2220782189],[82.3395993198,28.2219237349],[82.3396182312,28.2218384947],[82.339620381,28.2218288064],[82.3398963542,28.2212914841],[82.3400211625,28.220527806],[82.3401482131,28.2202987664],[82.3403406281,28.2201074121],[82.3406404032,28.2198946856],[82.3406827122,28.2198175684],[82.3408324445,28.2197213297],[82.3410248593,28.2195299735],[82.3419881149,28.2189159816],[82.3433613763,28.2184558561],[82.3435759123,28.2183026241],[82.3438325693,28.2180542126],[82.3443495923,28.2177598133],[82.3444331194,28.2177122525],[82.3450542935,28.2172910495],[82.345589793,28.2168346625],[82.3456747843,28.2166623657],[82.3459741872,28.2163188401],[82.346249852,28.2155581623],[82.3462912273,28.2152532545],[82.346354909,28.215101457],[82.3464153554,28.2141873538],[82.346373297,28.2133826631],[82.3463676275,28.2132741862],[82.3463795437,28.2132249289],[82.346515307,28.2126636816],[82.346470756,28.2123595833],[82.3463881188,28.2121416547],[82.3463838344,28.2121303541],[82.3463612798,28.2119027497],[82.346231051,28.2116740188],[82.3462272522,28.2109138378],[82.3462265666,28.2108574681],[82.3462671946,28.2103426409],[82.3464148741,28.2097321985],[82.3465001776,28.2095802756],[82.346627168,28.2092000628],[82.3470539343,28.2086093729],[82.3474075764,28.2084276452],[82.3474619452,28.2084000228],[82.3479331377,28.2080548119],[82.349305844,28.2071547262],[82.3502510951,28.2069446964],[82.3504229473,28.2069429488],[82.3509365885,28.2068659532],[82.3511962204,28.206827034],[82.3513682599,28.2067892899],[82.3517977029,28.2067692356],[82.3526567786,28.2065397057],[82.3530003584,28.2064821535],[82.3535160407,28.2063281749],[82.3539454865,28.2061547597],[82.3542882568,28.2059257852],[82.3544599856,28.2058112982],[82.3548240686,28.2055053946],[82.3551877779,28.2049695103],[82.3556571069,28.204073787],[82.3557633482,28.2037681915],[82.3558702735,28.2036137696],[82.3559640657,28.2033746603],[82.3560195114,28.2032333066],[82.3561258123,28.2030811348],[82.3564659091,28.2020874805],[82.3565946439,28.2019531201],[82.3567450633,28.2018591307],[82.3570510563,28.2016796533],[82.3572379394,28.2015700394],[82.357495781,28.2014749891],[82.3577954948,28.2012645126],[82.3580312799,28.2010343494],[82.3582025112,28.2007867499],[82.3582663179,28.2006349523],[82.358264285,28.2000581204],[82.3582638932,28.1999470147],[82.3583265172,28.1995651759],[82.3584547542,28.1993360741],[82.3586901013,28.1990697889],[82.3587972137,28.1990304193],[82.359269157,28.1986490228],[82.3596980393,28.1984372357],[82.3598695188,28.198304689],[82.3601266739,28.1982073886],[82.3602771561,28.1980750284],[82.360619988,28.1979024857],[82.3609632566,28.1977681915],[82.3610635355,28.1977437335],[82.3619081963,28.1975377253],[82.3621657888,28.1974223646],[82.3623802624,28.1972713815],[82.3624447537,28.1972323856],[82.362851081,28.1968516142],[82.3629798792,28.1967195031],[82.3631723591,28.1964334081],[82.3632992857,28.196053131],[82.3632869431,28.1958074246],[82.3632762982,28.1955954849],[82.3633389208,28.1952158962],[82.3634237885,28.1949872933],[82.3637019472,28.1945310264],[82.3639584796,28.1942826161],[82.3643661795,28.1940552053],[82.3645187209,28.1939988348],[82.3646233957,28.1939601546],[82.3649663543,28.1937492417],[82.3652880028,28.1934640219],[82.3654155521,28.1932371693],[82.3655004843,28.1928551438],[82.3655198646,28.192475991],[82.3654576736,28.1922569721],[82.3654112616,28.1920935242],[82.3653027178,28.191866856],[82.3653020328,28.1917134321],[82.3654298959,28.1914098993],[82.3656223752,28.1911801737],[82.3664585821,28.1907635353],[82.366672806,28.1905921799],[82.366779359,28.190363327],[82.3667999859,28.1901352861],[82.3669282218,28.1899061831],[82.3670349597,28.1897923211],[82.3673784166,28.1896219657],[82.3679150941,28.1895827281],[82.3680578149,28.1895780913],[82.3685169521,28.1895631763],[82.3692041111,28.1893938889],[82.3698905236,28.1891659818],[82.3712639743,28.1885567448],[82.3721216178,28.1880811755],[82.3722927207,28.1880230595],[82.3726359286,28.1878346433],[82.3728719615,28.1876811607],[82.3730216944,28.1875398005],[82.3730744999,28.1874896807],[82.3732865988,28.1873544464],[82.3747160458,28.1865482909],[82.3748875235,28.1864721745],[82.3753382196,28.1861292756],[82.3755955632,28.1859958535],[82.3758959643,28.1857491941],[82.3764749536,28.1854839753],[82.3766253731,28.1853493662],[82.3766468516,28.1853357385],[82.3769252109,28.1851591362],[82.3772691098,28.1847767402],[82.3774197775,28.1846624392],[82.3779763948,28.1844921504],[82.3782329213,28.1844940919],[82.3785754372,28.1845515296],[82.3789167635,28.1846676482],[82.3796004786,28.1849743184],[82.379664469,28.1850503747],[82.3798350068,28.1851478682],[82.3800216137,28.1852470511],[82.3805181581,28.1855109697],[82.3809455343,28.1856848345],[82.3811156964,28.1858003886],[82.3821200551,28.1861466845],[82.3825467428,28.1864152917],[82.3827177806,28.1864541654],[82.3836574583,28.1869138868],[82.3836960585,28.1869272728],[82.3838281224,28.1869730716],[82.3839070972,28.1870349941],[82.3839985344,28.1871066869],[82.3843403598,28.187261115],[82.3847674858,28.1875094731],[82.385194237,28.1876833377],[82.385706913,28.1879510717],[82.3861340397,28.1881046892],[82.3863045779,28.1882021825],[82.3865614787,28.1882785542],[82.3869881058,28.1884907905],[82.3873302446,28.1885662266],[82.3874552324,28.1885610103],[82.3877583129,28.1885483589],[82.3878434877,28.1885881074],[82.3880147143,28.1885886088],[82.3881857537,28.1886252332],[82.3886130676,28.18883747],[82.3888690312,28.1888957802],[82.3890403205,28.188896221],[82.3892970972,28.1889726546],[82.3894682634,28.1889167878],[82.3899188951,28.1885738254],[82.3900041969,28.1885729511],[82.3904322624,28.1886498255],[82.3911157274,28.1889383726],[82.3912134757,28.188971602],[82.3914571163,28.1890544287],[82.3916285926,28.1890729922],[82.3923976732,28.1892862341],[82.3925688996,28.189286736],[82.392719006,28.1892288679],[82.3929331673,28.1890575119],[82.3930196593,28.1889054648],[82.3932589562,28.187969179],[82.3932598205,28.1877342555],[82.3932619084,28.1871661282],[82.3933054686,28.1869942073],[82.3935203833,28.1866333673],[82.3937570451,28.1863287113],[82.3940360111,28.1861002989],[82.3942937954,28.1857592713],[82.3944236594,28.185415117],[82.3944680983,28.1850154038],[82.3945968972,28.184786239],[82.3947688149,28.1845972586],[82.3952837536,28.1841611817],[82.395412926,28.1840087603],[82.3958365032,28.183688624],[82.3965928464,28.1831169839],[82.3967221457,28.1828878193],[82.3967655179,28.1826978996],[82.3967676551,28.1820301482],[82.3966409926,28.1815916238],[82.3964922654,28.1814555085],[82.3963221683,28.1811504723],[82.3963661075,28.1808071295],[82.3963241809,28.1805210918],[82.396218388,28.180215431],[82.3959631144,28.1799653877],[82.3958560677,28.1799078285],[82.3958467637,28.1799068181],[82.3956852776,28.1798892656],[82.3954926808,28.1798122687],[82.3951516693,28.1795247287],[82.3950455609,28.1793904899],[82.395025696,28.1789891505],[82.3951810116,28.1785783284],[82.395198618,28.1785317577],[82.3951358858,28.1781128572],[82.3950932676,28.1780162411],[82.3949019224,28.1777881338],[82.3947527576,28.1776723296],[82.3946347651,28.1775339021],[82.3942628961,28.1770976253],[82.3941356054,28.1768485205],[82.3940071874,28.1767144692],[82.3938374027,28.1764274926],[82.3937531076,28.1761622038],[82.3937358171,28.1750728649],[82.3936098474,28.1743861131],[82.393804645,28.1737570494],[82.3938490198,28.1733957081],[82.3939783208,28.1731101104],[82.394130248,28.1725582253],[82.3942379877,28.1723292482],[82.394303483,28.1720804592],[82.3946053919,28.171414212],[82.3947126943,28.1712439168],[82.3949287616,28.1711359772],[82.3952058196,28.1709975715],[82.3956341412,28.1707518498],[82.3959568564,28.1702184658],[82.3961297174,28.1697610102],[82.3961519047,28.1696096501],[82.3962813295,28.1693804856],[82.3963221739,28.1692649701],[82.3963893822,28.1690748893],[82.3967109675,28.1688482905],[82.3973311991,28.1687359336],[82.3974387144,28.1687363487],[82.3986148391,28.1687408899],[82.3991497062,28.1686677793],[82.3994493553,28.1685157968],[82.3999004277,28.1681164646],[82.400072094,28.1679071727],[82.4003948113,28.1673760399],[82.4008596966,28.1667667267],[82.4009754337,28.1666144306],[82.4014272562,28.1661766646],[82.4018349572,28.1658702595],[82.4019857533,28.1656228479],[82.4021368621,28.1654521159],[82.4022665991,28.1652026404],[82.402296973,28.1651718328],[82.402718172,28.1647446273],[82.4030630718,28.164210992],[82.40325661,28.1640195118],[82.4034709604,28.163868467],[82.4036424396,28.1637922273],[82.4041849766,28.1636153477],[82.4042209266,28.1636036282],[82.4048221654,28.1632049234],[82.4053794711,28.1628992093],[82.406150997,28.1626341804],[82.4064296496,28.1624823871],[82.4065153884,28.1624251423],[82.4066666853,28.1622160391],[82.4068166039,28.1621017409],[82.4072453634,28.161894327],[82.4073956588,28.1617596533],[82.4078032317,28.1615885515],[82.4083181039,28.161303522],[82.408359826,28.1612737406],[82.4088759751,28.1609053163],[82.4092184923,28.1607732089],[82.4097168873,28.1606336395],[82.4097536109,28.1606233562],[82.4100958149,28.160565677],[82.4104808267,28.1605684968],[82.4109513265,28.160493696],[82.4112506015,28.1603620887],[82.4114225819,28.1602294791],[82.4122364136,28.1598894589],[82.4125999913,28.1598135344],[82.4127707831,28.159739605],[82.4138405786,28.1595526366],[82.4140979237,28.1593807808],[82.4142049728,28.1593435379],[82.4144413824,28.1590772521],[82.4146554198,28.1589058335],[82.4146832905,28.1588942715],[82.4150419957,28.158737167],[82.4152135996,28.1586226169],[82.4154282592,28.1585459401],[82.4156646669,28.1583765842],[82.4160513073,28.1581672942],[82.4163948279,28.1579201351],[82.4168023998,28.157751281],[82.4174038886,28.1574292587],[82.4176186122,28.1572578394],[82.4179987085,28.1568535695],[82.4180490626,28.1568000126],[82.4182640986,28.156648905],[82.4188215282,28.1564604294],[82.4188721197,28.1564605785],[82.4189926912,28.1564609319],[82.4194858779,28.1563678206],[82.4200001226,28.1562360925],[82.4206437918,28.1559723129],[82.4209443788,28.1558000205],[82.4213525148,28.155631104],[82.4219921566,28.1552648655],[82.4221469785,28.1551762199],[82.4226617254,28.1549859318],[82.4229186908,28.1549313793],[82.4230898563,28.1549318803],[82.4235621703,28.1547036582],[82.4238193858,28.154667103],[82.4240339843,28.1545904253],[82.4243981868,28.1545550585],[82.4245046713,28.1545743085],[82.4248262536,28.1544987583],[82.4253408099,28.1544821426],[82.4257046359,28.1545234571],[82.426303302,28.1546593267],[82.4264960889,28.1546595803],[82.4265365635,28.1546787222],[82.426902032,28.1548515679],[82.4273510299,28.1549303812],[82.4276932325,28.1550644343],[82.4283138352,28.1550850049],[82.4291710986,28.1548572885],[82.4301804117,28.1542489832],[82.4305449917,28.154060194],[82.4306734116,28.1540024509],[82.4305409254,28.1539033578],[82.4302897203,28.1537154724],[82.4296299488,28.1529509069],[82.4294607276,28.1525691895],[82.4292076533,28.151671831],[82.4291674821,28.1511353788],[82.4292117312,28.1508304072],[82.4291483681,28.15065736],[82.4290416355,28.1505231205],[82.4288920944,28.1504276891],[82.4286785623,28.1503486942],[82.4282733729,28.1500213424],[82.4280388474,28.1497531139],[82.4278900593,28.1495223196],[82.4276339111,28.1492542787],[82.4273368357,28.1486799519],[82.4273163411,28.1485267784],[82.4270399483,28.148123624],[82.4268699785,28.1477780272],[82.4266155858,28.1471648291],[82.4265738456,28.1469351624],[82.4263616316,28.1465336334],[82.4263414523,28.14630378],[82.4262567178,28.1460542384],[82.4261079922,28.1458256951],[82.425852468,28.1455554026],[82.4256171899,28.1454202873],[82.4254252828,28.1452486125],[82.4250409625,28.1450540619],[82.4247848128,28.1448808249],[82.4246143397,28.1446908387],[82.4242963946,28.1439813364],[82.4240863776,28.143063168],[82.4240073526,28.1416090495],[82.4237560344,28.1404025939],[82.4237573531,28.1400213793],[82.423652249,28.1396750963],[82.4236755659,28.1392733209],[82.4237187504,28.1391217722],[82.4238700471,28.1388742974],[82.4240205916,28.1387599351],[82.4244276632,28.1386090803],[82.4248779798,28.1385525286],[82.4253914095,28.1385562234],[82.4257338,28.1386157855],[82.4261623683,28.1385977932],[82.4264192093,28.1385409274],[82.4267619131,28.1385239335],[82.4269335788,28.1384680041],[82.4271915467,28.1382960861],[82.4272987843,28.1381822228],[82.4275145127,28.1378010108],[82.427688061,28.1372668119],[82.4277531807,28.137094704],[82.4281435225,28.1360643039],[82.4282733232,28.1357787067],[82.4284040634,28.1353194379],[82.4284263137,28.1351275183],[82.4284275065,28.1348409823],[82.4282800371,28.1342673445],[82.4279404686,28.1336550827],[82.4277270639,28.1334429746],[82.4275562141,28.1333657923],[82.4274281081,28.1332498625],[82.4272576978,28.1330192564],[82.4271303447,28.1327702154],[82.4270474301,28.1321778308],[82.4270696169,28.1320242196],[82.4269012135,28.1314123982],[82.4267319922,28.1310284311],[82.4259011854,28.1300693815],[82.4254102582,28.1297022827],[82.4247285505,28.128992088],[82.4244946505,28.1286674272],[82.4243452354,28.1285313745],[82.4240054785,28.1279957926],[82.4236217891,28.1275531409],[82.4226399961,28.1268595651],[82.4222555511,28.1266492661],[82.4220632662,28.126590269],[82.4214857844,28.1264542105],[82.4211649531,28.1264327082],[82.4207163286,28.1262772157],[82.4205233552,28.1262589007],[82.4204592391,28.1262189675],[82.4200746052,28.126141781],[82.4198176404,28.1261399027],[82.4196249787,28.126101278],[82.4189826899,28.126155327],[82.4187259745,28.1261354496],[82.4180825582,28.1263045502],[82.4177610361,28.1264747164],[82.4170533159,28.1266421918],[82.4161531186,28.1269244651],[82.4157666052,28.127133753],[82.414930212,28.1274355256],[82.414736548,28.1276067569],[82.4146841791,28.1276366283],[82.4143936532,28.1277975468],[82.4142013659,28.1278333533],[82.4139875798,28.1279280927],[82.4135172683,28.1279080875],[82.4132189988,28.1277712825],[82.4128339985,28.1272745106],[82.4127731947,28.127196267],[82.4124322455,28.126906476],[82.4118783885,28.1265805596],[82.411751283,28.1264442592],[82.4114524516,28.1263097658],[82.4112823521,28.126194211],[82.411154684,28.1260601598],[82.4106206957,28.1259415999],[82.4101723184,28.1259010971],[82.4094877191,28.1261291916],[82.4092523741,28.1262805486],[82.4091878812,28.1263556049],[82.4089307254,28.1264891506],[82.4088024304,28.1265062098],[82.4084823495,28.1264485854],[82.4083539921,28.1264093372],[82.4079284922,28.1261204196],[82.4076516591,28.1258706258],[82.4069915681,28.1254465936],[82.4066712382,28.1253686577],[82.4063726559,28.1252521638],[82.4062174299,28.125102613],[82.4061098208,28.1249976828],[82.4058761016,28.1250204287],[82.4056193268,28.1248470649],[82.4052986233,28.1246924498],[82.404077733,28.1242854065],[82.4030528829,28.1235944549],[82.4029245271,28.1235550823],[82.402537578,28.1235906359],[82.4018287367,28.1235685648],[82.4011212095,28.1234133817],[82.4006062181,28.1233329437],[82.4004128066,28.1233326288],[82.4002193319,28.1233706854],[82.3998078821,28.1236725886],[82.399549602,28.1237677636],[82.3992916999,28.1237478861],[82.3983278365,28.1234374012],[82.3981348002,28.1234167749],[82.3979399481,28.1235496349],[82.397787903,28.1237406777],[82.3976782257,28.1239673431],[82.3975696759,28.1240812072],[82.3972680896,28.1241768186],[82.3968807665,28.1242304332],[82.3967726542,28.1243262345],[82.3965313644,28.1248023755],[82.3963358246,28.1250299138],[82.3960968586,28.1249466685],[82.3959035097,28.1249486025],[82.3956478543,28.1251023351],[82.3953919556,28.1248906638],[82.3951374954,28.1245458785],[82.3947539283,28.1242024046],[82.3941128339,28.1238164305],[82.3938134397,28.1236818766],[82.3936218429,28.1235281377],[82.3934939265,28.1233738368],[82.3933252035,28.1230687382],[82.393221037,28.122686333],[82.3930730618,28.122455478],[82.3928839083,28.1219973292],[82.3925249053,28.1213850678],[82.3923781195,28.1210031001],[82.3920400519,28.1203907139],[82.3915943723,28.1198155092],[82.3914040276,28.1195084103],[82.3911063879,28.119164063],[82.3898706366,28.1180893302],[82.3895511844,28.1177812283],[82.3892534813,28.1174368808],[82.3888543024,28.1165183339],[82.388345385,28.1157723329],[82.3881547891,28.1155418503],[82.3878370912,28.115024019],[82.3877947236,28.1149477749],[82.3875837587,28.1145641814],[82.3871197133,28.1136462587],[82.3870377947,28.1132636053],[82.3870195532,28.1128825778],[82.3867062996,28.1119654061],[82.3866719452,28.1111243582],[82.386718509,28.1107426435],[82.3866177828,28.1101278852],[82.3866284881,28.1091329143],[82.3865463175,28.1088247541],[82.3865276992,28.1085181564],[82.3863222431,28.1076743561],[82.3861335252,28.1072905138],[82.3860506679,28.1069822896],[82.3860955398,28.1068104313],[82.3862475227,28.1066600098],[82.3863352628,28.1065079621],[82.3871789112,28.1058430354],[82.3875942433,28.1051011715],[82.3882325596,28.1036510636],[82.3883887377,28.1030404328],[82.3883756905,28.1022735663],[82.3887910842,28.1015881346],[82.3891602293,28.1011693663],[82.3894872576,28.1006359189],[82.3896414942,28.1002734546],[82.3897344322,28.099584518],[82.389717441,28.0992011786],[82.3898310623,28.0985909872],[82.3898338155,28.0983608815],[82.3894398307,28.0970542446],[82.3893135385,28.0968254523],[82.3890436533,28.0960183975],[82.3888552489,28.0955578737],[82.3886479145,28.0948651848],[82.3886498541,28.0947140105],[82.388813669,28.0934130691],[82.3889475972,28.0929538009],[82.3890176597,28.0924184754],[82.3890234819,28.0918815247],[82.3891550319,28.0915779294],[82.3894150629,28.0913293932],[82.3895028051,28.0911774085],[82.3895698621,28.0909488672],[82.3893880944,28.0898747132],[82.3893902235,28.0896446089],[82.3893290492,28.0893385114],[82.389292251,28.0888019344],[82.389337625,28.0885736434],[82.3894906719,28.0882676113],[82.3894944277,28.0879607018],[82.389409816,28.0878082141],[82.3892823977,28.0876922222],[82.3888339614,28.0875343571],[82.3884504553,28.0872833111],[82.3880664479,28.0870886983],[82.3877270013,28.0867019167],[82.3876020234,28.0863760704],[82.3876482736,28.0860688483],[82.3876077824,28.085839119],[82.3876107875,28.0855323342],[82.3878112116,28.0848445246],[82.3878130886,28.084693414],[82.3877293538,28.0844618708],[82.3874543348,28.084094713],[82.387286363,28.0837874256],[82.3871800047,28.0836734356],[82.3870528373,28.0835754416],[82.387009592,28.0835758788],[82.3870994575,28.0834418922],[82.3871624517,28.0833465269],[82.3873139958,28.0832141669],[82.3876383927,28.0830258763],[82.3879426078,28.0827025337],[82.3882511412,28.0820181647],[82.3882810868,28.0813298531],[82.3883471436,28.0811780551],[82.3885197471,28.0811018766],[82.3891439152,28.0809354009],[82.3900723624,28.0804455214],[82.3905048089,28.080161367],[82.3913748362,28.0791374723],[82.3916128061,28.0790042377],[82.3919993175,28.0789506852],[82.3914918967,28.0783535458],[82.3911128963,28.0777573447],[82.3909884196,28.0773750651],[82.3909945528,28.0769149199],[82.3912570256,28.0764588405],[82.3916064259,28.0759455167],[82.3916734206,28.0757169758],[82.3916752985,28.0755635533],[82.3916138737,28.0753341356],[82.3914460886,28.0750470951],[82.3912761763,28.0748908587],[82.3905488406,28.0746953032],[82.3895432302,28.0745136808],[82.3893294468,28.0744549334],[82.3887525911,28.0742396948],[82.3883259643,28.0740454556],[82.3879219608,28.0737744121],[82.3877096179,28.0735803026],[82.3876675634,28.0735220564],[82.3875405834,28.0733880044],[82.3869902934,28.072770989],[82.3864804326,28.0723272736],[82.3863750745,28.0721929714],[82.3862473431,28.0720972908],[82.3861635433,28.07196274],[82.3860145668,28.0718469358],[82.385697866,28.071441844],[82.3850373371,28.0710538059],[82.3848662369,28.0709968718],[82.384546909,28.0707835112],[82.3843757449,28.0707243267],[82.3841420928,28.0705507778],[82.383970991,28.0704937803],[82.383544928,28.0702409845],[82.3833738277,28.0701840484],[82.3826918655,28.0697578286],[82.3822031257,28.0693724821],[82.3815210989,28.0689868192],[82.3811594025,28.0686972159],[82.3809895537,28.0685432896],[82.3808192658,28.0684479832],[82.3802031703,28.0679466455],[82.3799913918,28.0676961649],[82.379736743,28.0674663699],[82.3792236901,28.0672707565],[82.3787104494,28.0671540724],[82.3783246267,28.0671128825],[82.3783030048,28.0671130689],[82.3781745843,28.0671121306],[82.3774021895,28.0670679984],[82.3769728706,28.0671038634],[82.3765449938,28.0670043671],[82.3761179286,28.0668101281],[82.3756494357,28.0665215848],[82.3747953075,28.0661512313],[82.3741954522,28.0660714809],[82.3733376307,28.0660079113],[82.373024424,28.0659771594],[82.3729811173,28.0659730964],[82.372568295,28.0661013296],[82.3717917079,28.0663774804],[82.3711871602,28.0666361983],[82.3704973739,28.0668371065],[82.3698925127,28.0671160734],[82.3695453044,28.0673609206],[82.3690893589,28.0677534408],[82.3689358769,28.0678858012],[82.3688711348,28.0679428575],[82.3684318082,28.0685472337],[82.3682358305,28.0687364006],[82.3679978606,28.0688673861],[82.3675664792,28.0689957427],[82.3667017746,28.0694420024],[82.3663562567,28.0695717362],[82.3658400746,28.0696784055],[82.3654965571,28.0697133972],[82.3648104627,28.0697044517],[82.3642993471,28.0695087737],[82.3640241373,28.0693129763],[82.3637924863,28.0690446221],[82.3633275559,28.0686770242],[82.3629269297,28.0682704298],[82.3628020133,28.0680393873],[82.3622344773,28.0674043116],[82.3621507401,28.0672698221],[82.361749801,28.0668835381],[82.3617301808,28.0667867361],[82.3616675026,28.0667106794],[82.3614561599,28.0665368161],[82.3611148951,28.0663980748],[82.3607975054,28.0661846516],[82.3605416034,28.0661059676],[82.3603078242,28.0659684777],[82.3598796323,28.065945598],[82.3596219797,28.0659797791],[82.35895125,28.0663337997],[82.3585203069,28.0664441585],[82.3580049374,28.0665123949],[82.3576239945,28.066202543],[82.3575835024,28.0660698659],[82.3564338532,28.0655962683],[82.3558607493,28.0652657901],[82.3555446731,28.0649576265],[82.3552029069,28.0648775038],[82.3548840789,28.064700202],[82.3543723999,28.0645608959],[82.3541173118,28.0644438398],[82.3532644936,28.0641657907],[82.3526272738,28.0637953156],[82.3520527939,28.0635596414],[82.3520103626,28.0635217065],[82.3517114035,28.0634614571],[82.3513071489,28.0632647202],[82.3509267071,28.0629368697],[82.3507591076,28.0627061378],[82.3506587543,28.0623033603],[82.3506004557,28.0619587039],[82.3506039589,28.0617309127],[82.3506284596,28.0615592409],[82.3506964544,28.0613510107],[82.3507228305,28.0610642248],[82.3505896792,28.0600324423],[82.3506143045,28.0598630215],[82.35057569,28.0595746083],[82.3504723953,28.0593455649],[82.3503477288,28.0591347707],[82.3501797552,28.0589221004],[82.3497994379,28.0585559408],[82.3493956217,28.0583410792],[82.3491393452,28.0582804566],[82.3486257273,28.0582358279],[82.3481106087,28.0582680053],[82.3475963657,28.058223377],[82.3473400273,28.0581627543],[82.3466585601,28.0579055177],[82.346316796,28.0578253946],[82.3454879786,28.0573778611],[82.3451489036,28.0571059448],[82.3448543245,28.0567772827],[82.3442399776,28.0563501873],[82.343984076,28.0562714408],[82.3437287385,28.0561340747],[82.3430452707,28.0559738291],[82.3428751701,28.0558965845],[82.3425599696,28.0554913669],[82.3423272539,28.0553356899],[82.3419851139,28.0552736283],[82.3413843191,28.0552659952],[82.34112798,28.0552053092],[82.3406144254,28.0551629314],[82.3404439492,28.0551014968],[82.3402714709,28.0551392408],[82.3400143819,28.0551169266],[82.3395871284,28.0550151168],[82.3387362506,28.0546241404],[82.3378032001,28.0540218702],[82.3376323483,28.0539806838],[82.337036496,28.0537067634],[82.3366514868,28.0536248269],[82.3364860146,28.0532993554],[82.3364703358,28.0529565729],[82.3365188353,28.0526132297],[82.3366106426,28.0522717008],[82.3366369561,28.0519849766],[82.3367013228,28.0519482934],[82.3367241336,28.0518916746],[82.3368416301,28.0512634202],[82.3369766174,28.0509214535],[82.3372201558,28.0504679362],[82.3372657153,28.050296015],[82.3373129012,28.050049726],[82.3372546023,28.0497051316],[82.337170928,28.0495705805],[82.3370863156,28.0495127709],[82.3367667365,28.0493737798],[82.3365083317,28.0494484562],[82.3359919626,28.0495369411],[82.3355605183,28.0497035456],[82.3352166263,28.0497565347],[82.3350007791,28.0498285883],[82.3347662491,28.0497315933],[82.3347462536,28.0496550996],[82.3347764467,28.0491201494],[82.3348262599,28.0487204358],[82.3349413779,28.0482658552],[82.3350068072,28.0482088603],[82.3350301809,28.0480935594],[82.3351181725,28.0479618847],[82.3352265958,28.0478863937],[82.3357535382,28.0471684034],[82.3360794997,28.0469058074],[82.336554814,28.0466823976],[82.3369428886,28.0465545394],[82.3372845922,28.0466346615],[82.3377354052,28.0466416047],[82.338057613,28.0465888029],[82.3392806366,28.0465453238],[82.339796256,28.0464951485],[82.3402273254,28.046348855],[82.3404653582,28.0462179342],[82.3406848966,28.0459338382],[82.3407966989,28.0456688004],[82.340796824,28.0456304299],[82.3408074595,28.0450009869],[82.3404801453,28.0440815658],[82.3402309994,28.0436215419],[82.339749515,28.0429292236],[82.3397080217,28.0428145457],[82.3394559367,28.0425237571],[82.3389528301,28.0418316249],[82.3389209598,28.0417755668],[82.338724743,28.0414300956],[82.3382217598,28.0407965838],[82.3380356047,28.0403946176],[82.3380626059,28.0401101446],[82.3380852299,28.0400354638],[82.3381613559,28.0394075846],[82.3382759093,28.0390094342],[82.3383010976,28.038783644],[82.3382446134,28.0383826792],[82.3381834986,28.0382118185],[82.3377868137,28.0375975565],[82.3375593524,28.0371395956],[82.3373712576,28.0368888036],[82.3372472164,28.0366215755],[82.3371649812,28.0364486523],[82.3370425663,28.0361069947],[82.3369651466,28.0357039679],[82.3367826187,28.0351868884],[82.3364946047,28.0346099355],[82.3362257747,28.0341478493],[82.335892077,28.0336841366],[82.3357066092,28.0333362908],[82.3354402178,28.0327614025],[82.3351563331,28.0319543475],[82.334783645,28.0313195867],[82.3347206546,28.0312615289],[82.3347219064,28.0312051595],[82.3346184233,28.0310121126],[82.3342182331,28.030718259],[82.3339458363,28.0304276578],[82.3338456069,28.0300834992],[82.3337213777,28.0298523304],[82.333450108,28.0295052959],[82.3331441003,28.028754861],[82.333134487,28.0281842247],[82.3332490405,28.0277838246],[82.3332136776,28.0274412934],[82.3332383025,28.0272695591],[82.3334848413,28.0267010521],[82.3336618235,28.0264173305],[82.33372963,28.0262474724],[82.3337092579,28.0261890399],[82.3337530042,28.0261322327],[82.3337651378,28.0255613482],[82.3336612176,28.0253887375],[82.3336216007,28.0252153771],[82.3335388012,28.025098887],[82.3335478073,28.0246408664],[82.3334668231,28.0244115736],[82.3334511428,28.0241252248],[82.3334749545,28.0239918623],[82.3337554186,28.0239011862],[82.3338188474,28.0239411831],[82.3342669726,28.0240044973],[82.3349013807,28.0243773475],[82.3351557814,28.024496653],[82.3354747995,28.0245973358],[82.3360522216,28.0246255294],[82.3366315819,28.0245589805],[82.337018532,28.024449246],[82.3372127561,28.0243773808],[82.3375381544,28.0241712795],[82.3376673878,28.0241360968],[82.3379917842,28.0239502432],[82.3382505636,28.0238597556],[82.3383159316,28.0238026363],[82.3387690616,28.0235997238],[82.3392212535,28.0234735541],[82.3400591429,28.0233345788],[82.3401875001,28.0233378304],[82.3406156302,28.0233245881],[82.3407440513,28.0233279017],[82.3411284347,28.0233715276],[82.3415754983,28.0234934602],[82.3420204961,28.0237101976],[82.3429136827,28.0239924348],[82.3435541582,28.0240786846],[82.3440689027,28.0240285107],[82.3445224699,28.0238075369],[82.3447186342,28.0236386797],[82.3452387579,28.0233042179],[82.3456925138,28.0231013065],[82.346208696,28.0229563896],[82.3465069044,28.0230188875],[82.3467178731,28.0231746889],[82.3469051553,28.0234638532],[82.3470320125,28.0235438472],[82.3472233609,28.0236028443],[82.3475877495,28.0235699771],[82.3477377916,28.0235730423],[82.3485769952,28.0233392011],[82.3494176373,28.0230286787],[82.3509740664,28.0222712076],[82.3517499671,28.0220131803],[82.3520961738,28.021847324],[82.3524027013,28.021508235],[82.3526035568,28.0210550921],[82.3527139204,28.0208847965],[82.352954267,28.0206410724],[82.3530408815,28.0206041395],[82.3535657579,28.0200395106],[82.3537612976,28.0198729661],[82.3542003121,28.0193068998],[82.3545493957,28.0189696228],[82.3546813809,28.0187991405],[82.3548351143,28.0185923491],[82.3548155562,28.0184978571],[82.354637781,28.01775061],[82.354374268,28.0170020502],[82.3543561483,28.0168306898],[82.354403521,28.0166024613],[82.3542630477,28.0161437521],[82.3541885059,28.0155691778],[82.3541050824,28.0154526866],[82.3540858371,28.0153378232],[82.3538799971,28.0149338562],[82.3536934024,28.0146469421],[82.3534286388,28.0139547519],[82.3530181469,28.0130903245],[82.3529346596,28.012973833],[82.3529471697,28.012344329],[82.3529086788,28.0121146],[82.3527878894,28.0117503178],[82.3526832191,28.0116160794],[82.3523682035,28.0113236641],[82.3522635946,28.0111893003],[82.3518410322,28.0109340671],[82.3515016427,28.0107772647],[82.3512452408,28.0107527008],[82.3504785345,28.0105684555],[82.3496250271,28.0104595791],[82.3488575081,28.0103137065],[82.3485177429,28.0101749015],[82.3480735581,28.009919855],[82.3478180306,28.0098592329],[82.3475620663,28.0098166699],[82.3470484476,28.0098081014],[82.3466219442,28.0097446012],[82.3464515297,28.0096831037],[82.3462191889,28.0095478008],[82.3461165818,28.0093164453],[82.3460997141,28.0090865283],[82.3461032785,28.0089150441],[82.3464765504,28.0084264061],[82.3469760521,28.0080718216],[82.3473467577,28.0077343571],[82.3476504715,28.0075283175],[82.347999555,28.0071910408],[82.3481099178,28.0070208083],[82.3483054576,28.0068518886],[82.348721972,28.0063628766],[82.3489381956,28.0062321424],[82.3491127385,28.0060635332],[82.349355086,28.0057250062],[82.3495074432,28.0056130185],[82.3497695378,28.0053306739],[82.3498582792,28.005160628],[82.3500399517,28.0046490529],[82.3500278985,28.0041912818],[82.3499452883,28.0040364191],[82.3498406786,28.0039020548],[82.349630149,28.0037259423],[82.3488677577,28.0033319048],[82.34835464,28.0033053377],[82.3475838679,28.0033490104],[82.3472396636,28.0034200621],[82.3467254199,28.0034498644],[82.3450931333,28.0037681243],[82.3444939026,28.0037582428],[82.344067397,28.0036947413],[82.343045165,28.0034475623],[82.3426186614,28.0033840616],[82.3421083575,28.0032243807],[82.3418124012,28.0030287073],[82.3415603772,28.0027943504],[82.3413318517,28.0024491913],[82.3412106242,28.0021029704],[82.3411721953,28.001873241],[82.3409088072,28.0011246176],[82.3406396013,28.0006828414],[82.3401578643,28.000159695],[82.3398046622,28.0001134449],[82.3404864516,27.9997549255],[82.3407265482,27.9995879434],[82.3409683313,27.9993645293],[82.3412079268,27.9992177968],[82.3414495236,27.9989740724],[82.341843976,27.9986567312],[82.3437493587,27.9979320127],[82.3447001104,27.9976452405],[82.3449598906,27.9975366908],[82.3451306782,27.9975778776],[82.3456564758,27.9979696615],[82.3459974906,27.9980520963],[82.3465142351,27.9979658614],[82.347207648,27.9976748356],[82.3473602534,27.9975830952],[82.3475576676,27.9974142387],[82.3476442816,27.9973795562],[82.347931686,27.99704059],[82.3481287249,27.9968920449],[82.3486872138,27.9968459936],[82.3488600029,27.996792377],[82.349462611,27.9967097679],[82.3496341508,27.9967125831],[82.3503168692,27.9968390189],[82.3507478127,27.9967535324],[82.3510082171,27.9966427339],[82.3512486253,27.9964576294],[82.3513614271,27.9962309644],[82.3513906165,27.9959261175],[82.3514798557,27.9957943801],[82.3516534597,27.9957024539],[82.352130211,27.9955218521],[82.3527347587,27.9953421894],[82.3531633245,27.9953695687],[82.3534184771,27.9954505031],[82.3538467943,27.9954598201],[82.3540191465,27.9954242642],[82.3544539671,27.9951854164],[82.3548009229,27.9950398724],[82.3551513177,27.9947612147],[82.3552197495,27.9945913566],[82.3554433503,27.9942327056],[82.3559767307,27.9935010917],[82.356070161,27.9931978708],[82.3560546048,27.992967953],[82.3559376275,27.9925089314],[82.3557565359,27.9920482834],[82.3555925635,27.9917408097],[82.355237493,27.9913901501],[82.3551525047,27.9913504013],[82.3549189759,27.9912692171],[82.3545978315,27.9912453413],[82.3541513319,27.9911030974],[82.35351586,27.9907868045],[82.3531387922,27.99045433],[82.3530348091,27.9903200896],[82.3526346802,27.9900262362],[82.3517143827,27.9891329294],[82.3516293954,27.9890931819],[82.3514631095,27.9888985727],[82.3513397545,27.9886877146],[82.3510678587,27.9884332331],[82.3509023219,27.988202503],[82.3504406416,27.9878122811],[82.3503997102,27.9877359756],[82.3500008333,27.9873857516],[82.3498564811,27.9871728306],[82.3497953044,27.9870561542],[82.3495732819,27.9865192002],[82.3493274486,27.9860569264],[82.3491614123,27.9858442553],[82.3490738128,27.9850803867],[82.3490385877,27.9839370533],[82.3488807441,27.9834017229],[82.3486392881,27.9827859643],[82.3480680725,27.9816523721],[82.347748507,27.9807306389],[82.3475442294,27.9803469218],[82.3472743346,27.9799976355],[82.3467588558,27.9792063889],[82.3464104761,27.97857138],[82.3462851832,27.9784553257],[82.3463125596,27.978206911],[82.3465874722,27.9775274773],[82.3470784356,27.9759368162],[82.3470822504,27.9757833915],[82.3470041399,27.9754773575],[82.3466753824,27.9749392143],[82.3463945592,27.9741704681],[82.3459212612,27.9733990937],[82.3457550378,27.9732066711],[82.345164062,27.9728335093],[82.3448444807,27.9727689478],[82.3446496305,27.9728408135],[82.3443235453,27.9730267299],[82.3439378478,27.973019288],[82.3436839474,27.9728795463],[82.34353822,27.9727050601],[82.3435416597,27.9725718854],[82.3436308376,27.9724402122],[82.3439334233,27.9723515363],[82.3440863427,27.9722394864],[82.3442413254,27.9720326945],[82.3442470156,27.9718250884],[82.3438458238,27.9715876672],[82.3430825581,27.9712499368],[82.3427037391,27.970976206],[82.3425766326,27.9709165223],[82.3422581147,27.9707955911],[82.3418742933,27.9707316537],[82.3416162018,27.9707634596],[82.3414234161,27.970740521],[82.3411045851,27.9706399025],[82.3405344807,27.9703047977],[82.3402828306,27.97009069],[82.3401389791,27.969859834],[82.3399100778,27.9695867308],[82.3396152464,27.9693731209],[82.3387073157,27.9688405319],[82.3384561042,27.9686083617],[82.3382102703,27.9681460882],[82.3381065988,27.9680298471],[82.337511058,27.9678460426],[82.3373179585,27.9678434144],[82.3370589924,27.9679136548],[82.3368634538,27.9680238291],[82.3367340964,27.9680408885],[82.3366068644,27.9679812057],[82.3364407033,27.9677865326],[82.3361329411,27.9672480784],[82.3358639837,27.9668627336],[82.3353625606,27.9663758336],[82.3353215671,27.966299528],[82.3351534674,27.9661612875],[82.3340964329,27.9655895745],[82.3334664647,27.9650813616],[82.3331036389,27.9650171748],[82.3324177316,27.9650238523],[82.3315640997,27.964874166],[82.3313651267,27.9648084817],[82.3308830071,27.9646506769],[82.3303748307,27.9643939426],[82.330205793,27.9642760136],[82.3299497035,27.9642130784],[82.3297804157,27.964133457],[82.3289240954,27.9640221427],[82.3284086639,27.9640520081],[82.3278684225,27.9641744899],[82.3276053906,27.9643777797],[82.3274732187,27.9645279513],[82.3270925089,27.9651317041],[82.3268484739,27.9654317972],[82.3267139885,27.9656564004],[82.3264703898,27.9659384953],[82.3261112414,27.9665397483],[82.3256716042,27.9669523289],[82.3252564054,27.9672292363],[82.3250827401,27.9673031019],[82.324650359,27.9674268345],[82.3242208548,27.9674197044],[82.3240265039,27.9674734464],[82.3236974816,27.9677337922],[82.3231690426,27.9682554253],[82.3228365184,27.9686488841],[82.3225507396,27.9689111062],[82.3223973199,27.9690411552],[82.3221354786,27.9691880133],[82.3218751991,27.9692988114],[82.321271278,27.9694196664],[82.3209275744,27.969413912],[82.3206679824,27.96948409],[82.31972511,27.969466078],[82.319552757,27.9694993228],[82.3192103041,27.9694935675],[82.3187836757,27.9694074453],[82.318355421,27.9693980022],[82.318270495,27.9693581921],[82.3177578774,27.9693090011],[82.3174147991,27.9693032473],[82.3168995549,27.9693487979],[82.3168141922,27.9693270494],[82.3163841245,27.9693762882],[82.3159528675,27.9694818976],[82.3153446944,27.9697742378],[82.3147422733,27.9698566585],[82.3141436677,27.9697879687],[82.3137989629,27.9698566459],[82.313539622,27.9699471332],[82.3130176238,27.9702205379],[82.3120690609,27.9704123187],[82.3112126137,27.9703934341],[82.3109570869,27.9703304366],[82.310788175,27.9702305064],[82.3103629841,27.9701082609],[82.3102556224,27.9701047591],[82.3100600848,27.9702171834],[82.3095844456,27.9711217822],[82.3094731445,27.9712717043],[82.3092638493,27.9718782711],[82.3092084109,27.9723367278],[82.3091396674,27.9724862762],[82.3089836854,27.9727133152],[82.3088516373,27.9728251157],[82.3085899818,27.972990035],[82.3083296404,27.9731007706],[82.3076401053,27.9732381861],[82.3073823909,27.9732519311],[82.3066914797,27.9734276555],[82.306366084,27.9735728249],[82.3057557214,27.9739418457],[82.3054958802,27.9740503317],[82.3051497368,27.9741596912],[82.3050639354,27.9741559403],[82.3046083059,27.9743565417],[82.3042794701,27.9746371342],[82.3042340373,27.974712004],[82.3042301607,27.9748654269],[82.3044529341,27.9753280124],[82.3044661151,27.9756324226],[82.3045451632,27.9758640268],[82.3045560919,27.9762451803],[82.3045107831,27.9763403587],[82.3043787991,27.976452159],[82.3036135798,27.9770075337],[82.303282306,27.9773445611],[82.3029059112,27.9777947655],[82.302625621,27.97862756],[82.302512133,27.9788542257],[82.3023408293,27.9796138413],[82.3020263621,27.9801424131],[82.3018402526,27.9806720505],[82.3017050787,27.9808989027],[82.301177329,27.9813844131],[82.3010022871,27.981514649],[82.3006256427,27.9819444796],[82.2998419276,27.9823873022],[82.2984548545,27.9829486065],[82.2981086487,27.9830556549],[82.2979771647,27.9831673922],[82.297108399,27.9835704063],[82.2968484333,27.9836585815],[82.296077661,27.9836432584],[82.295906873,27.9836020105],[82.2955643565,27.9835939439],[82.2950515519,27.9835266301],[82.2946201708,27.9836321772],[82.2944458802,27.9837217919],[82.2943140829,27.9838539026],[82.2940657336,27.9842870463],[82.2938436338,27.9845688925],[82.2932955742,27.9850162182],[82.2927078357,27.9853262445],[82.2922787674,27.9853573607],[82.2916804747,27.9852682352],[82.2910020076,27.9850038753],[82.2907465444,27.9849431268],[82.2898925976,27.9848293126],[82.2897033743,27.9847815021],[82.289551708,27.984744566],[82.2892983694,27.9846454455],[82.2890037254,27.9844473979],[82.2885775331,27.9844017696],[82.2881529678,27.9842771504],[82.2879836161,27.9841975307],[82.2878374506,27.9840793516],[82.2877341546,27.9839449873],[82.2872674077,27.9838004315],[82.2870915532,27.9839690386],[82.286707279,27.9847260263],[82.2866601572,27.9848776366],[82.2865704795,27.9850273721],[82.2864389959,27.9851391726],[82.2862643914,27.9852513475],[82.2860059882,27.9853213997],[82.2855729809,27.9855036895],[82.2854006279,27.985539121],[82.2851444744,27.9855324934],[82.2848855086,27.9856048579],[82.2846284176,27.9856185407],[82.2841957862,27.9857804569],[82.2839359441,27.985888943],[82.2835106764,27.9865673757],[82.2828661213,27.9874509105],[82.2823783641,27.9880532864],[82.2821756964,27.9884295624],[82.2820320824,27.9889610743],[82.2818952823,27.9892646688],[82.2817401118,27.9894713979],[82.2812371101,27.9898617923],[82.2807071089,27.9904419824],[82.280487446,27.9906673954],[82.2802697856,27.9907957557],[82.279349958,27.9915599858],[82.2790846764,27.991857954],[82.2787020282,27.992538324],[82.278237644,27.9930817679],[82.2780840992,27.9932117548],[82.2777871898,27.9938935623],[82.2773429894,27.9944751912],[82.2771634449,27.9947768485],[82.2770522694,27.9949290191],[82.276370162,27.9956008243],[82.2760438272,27.9957843661],[82.2756996856,27.9958552295],[82.2741597678,27.9958220225],[82.2735572217,27.9959630632],[82.2731241517,27.9961452903],[82.2729922291,27.9962750896],[82.2728975496,27.9965985594],[82.2726745107,27.9969186515],[82.2719250492,27.9969413878],[82.2711601556,27.9967341466],[82.2706480999,27.9966847684],[82.2704578154,27.9966053353],[82.2701445503,27.9963307316],[82.2699569533,27.9961564949],[82.2696185635,27.9960152522],[82.2692771728,27.995989061],[82.268929153,27.9961727918],[82.2687573639,27.9962081599],[82.2684148471,27.9962000942],[82.267988593,27.9961544045],[82.2668822466,27.9959209715],[82.2651728535,27.9958464552],[82.2644969499,27.9955278487],[82.263817482,27.9953422946],[82.2633093665,27.9951416799],[82.2628848019,27.9950169976],[82.2624581711,27.9949893697],[82.2614226818,27.9952741408],[82.2612701991,27.9953860664],[82.2608370676,27.9955659188],[82.2602043321,27.996011619],[82.2598582517,27.9961388526],[82.2587496391,27.9967445933],[82.2586177172,27.9968766423],[82.2584436139,27.9969865043],[82.2575774122,27.997350834],[82.2573179447,27.9974411971],[82.2566941512,27.9975619272],[82.2560962954,27.9975110484],[82.2557562804,27.9974464238],[82.2551634258,27.9972239989],[82.2549078993,27.9971609387],[82.2543950312,27.9971520567],[82.2537271807,27.9973093457],[82.2536146302,27.9975178872],[82.2535628183,27.997820609],[82.2536122398,27.9983570599],[82.2534923107,27.9988115802],[82.2532441475,27.9992650352],[82.2531287201,27.9995683809],[82.2529546098,28.000111391],[82.2524783539,28.0005217845],[82.2520851494,28.0009178678],[82.2512525552,28.0019405758],[82.251121634,28.0020522501],[82.2506887499,28.0022569764],[82.2503651051,28.0023479629],[82.2502350589,28.0024213286],[82.2488769847,28.0027855891],[82.2484255457,28.0028167049],[82.2482311331,28.0028703847],[82.248058029,28.0030118069],[82.2480420926,28.0030616138],[82.2480236567,28.0031181712],[82.2474893434,28.0036779255],[82.2472508734,28.00382672],[82.2468372972,28.0041621215],[82.246319614,28.0043427855],[82.2449464821,28.0045649957],[82.2445349087,28.0048033434],[82.2444906638,28.0048781485],[82.2442943738,28.0050469419],[82.2439490428,28.0051921123],[82.2430832134,28.0056510568],[82.2428692428,28.0056666152],[82.2424631098,28.0056589858],[82.2417775757,28.0057238454],[82.2413498205,28.005714153],[82.2404912466,28.0058708139],[82.2402347813,28.0058843704],[82.2395533753,28.0057574346],[82.2390404436,28.0057485537],[82.2388686543,28.0057838596],[82.2380125818,28.0058232203],[82.2373262347,28.0059263876],[82.2368991047,28.0059167588],[82.2362987471,28.005982993],[82.2358658014,28.0062418382],[82.2350239711,28.0065877952],[82.2346767636,28.0067893959],[82.2344181715,28.0069000078],[82.2342218195,28.0070664272],[82.2338274281,28.0074783204],[82.233277616,28.0081329417],[82.2328324745,28.0088859288],[82.2321283025,28.0097674631],[82.2318002165,28.0100862407],[82.2314685033,28.0105358214],[82.2313124554,28.0108372923],[82.2310949203,28.0109858368],[82.2307504026,28.0110926982],[82.2303205837,28.0111799961],[82.2295498741,28.0112432923],[82.2291248076,28.0111388588],[82.2286173816,28.0108816858],[82.2281923778,28.0107794398],[82.2279362252,28.0107749988],[82.2276781955,28.0108269274],[82.2268291729,28.0114954801],[82.2261353845,28.0119009329],[82.2256173876,28.0121199061],[82.2252723068,28.0122289535],[82.2244994091,28.0123847405],[82.2239848513,28.0124524773],[82.2227005237,28.0125045164],[82.2218401361,28.0127355456],[82.2208997002,28.0127370948],[82.220214103,28.0127995792],[82.2188395345,28.013077972],[82.2174607742,28.0135481596],[82.2172029315,28.0136203374],[82.2170527013,28.0136555185],[82.2171783697,28.0137514503],[82.2172609816,28.013868003],[82.2179240629,28.0147938024],[82.2186119571,28.0155501792],[82.2187358744,28.0157227919],[82.2193443465,28.0162114427],[82.2203328882,28.0169132683],[82.2205624155,28.0171458127],[82.2207700693,28.0174169152],[82.2210421541,28.017651398],[82.2213945981,28.0181332343],[82.2217284214,28.0184822069],[82.2225274288,28.0190684147],[82.2235420333,28.019544386],[82.2245605771,28.0198669331],[82.2250708191,28.0199706187],[82.2256693635,28.0199630642],[82.2263508328,28.0200900628],[82.2266040463,28.0202276175],[82.2269439357,28.0203306753],[82.2271121616,28.0204284184],[82.2272380164,28.0205445964],[82.227339374,28.0207940763],[82.2274163567,28.021138483],[82.2274222191,28.0218242951],[82.2272354818,28.0225049805],[82.2271236807,28.0227315207],[82.2268377128,28.0230702353],[82.2266127346,28.0235798115],[82.2266211601,28.0241504462],[82.2266956424,28.0246099685],[82.226817745,28.0248975687],[82.2268771088,28.0250888643],[82.2272249863,28.0257805567],[82.2274729472,28.0261280277],[82.2276147972,28.0264741229],[82.2280491025,28.0271086964],[82.2282125737,28.0274546057],[82.2285209606,28.0279751867],[82.2287429821,28.0285506998],[82.2288180884,28.0290079093],[82.2287889612,28.0293511269],[82.2287177783,28.0296360385],[82.2287008291,28.0303783453],[82.2285745191,28.0312322022],[82.2285656997,28.0316315406],[82.2284322767,28.0318583311],[82.2282792949,28.0319882539],[82.2279714548,28.0323632783],[82.227732922,28.0325120111],[82.2276468696,28.032548882],[82.227430773,28.0326591185],[82.2272368598,28.0327127356],[82.2268464075,28.0329710818],[82.2264334582,28.0332680486],[82.2257418571,28.0335990711],[82.2254610804,28.0337256176],[82.2247428547,28.034284744],[82.2240208149,28.0350130423],[82.2234559458,28.0354218721],[82.2229288177,28.0360221224],[82.2225809222,28.0362824059],[82.2220649283,28.0364065129],[82.2218708268,28.0364985019],[82.2215491194,28.0365487425],[82.2211691737,28.0363333188],[82.2210415676,28.0362915711],[82.2204640823,28.0363192474],[82.2196956867,28.0362674291],[82.2195681422,28.03622793],[82.2193757312,28.036243176],[82.2191805671,28.0363532257],[82.2189189098,28.0365968878],[82.2186368827,28.0367821166],[82.2185264585,28.0369117289],[82.2181342552,28.0372490667],[82.2177601091,28.0377170813],[82.2173019765,28.0381271626],[82.2166946757,28.0384979945],[82.2165653804,28.0385329902],[82.2162882305,28.0385286744],[82.2160504473,28.0386368485],[82.2159625198,28.0387323379],[82.2157864774,28.0389572525],[82.2156951103,28.0392016661],[82.2155831842,28.0394282689],[82.2155794931,28.0395997533],[82.215676786,28.0400026559],[82.2160894683,28.0406374154],[82.2162791906,28.0407755924],[82.2164695393,28.040855151],[82.2170723984,28.0406558037],[82.2175006539,28.0406452478],[82.2180945077,28.0408271763],[82.2182639216,28.0409069216],[82.2186054366,28.0409309243],[82.2190351936,28.0408256277],[82.2192079215,28.0407519495],[82.2193780854,28.0407932605],[82.2197161628,28.0409526876],[82.2199685623,28.0411286758],[82.2204086204,28.0415352701],[82.2206076523,28.0417748754],[82.2208448027,28.0420592903],[82.22155657,28.0426643086],[82.2219187709,28.0427084343],[82.2231087925,28.0429978623],[82.2233628815,28.0430971073],[82.2241235845,28.0434738335],[82.2248987191,28.0441189104],[82.2257603415,28.0447067439],[82.2264384328,28.044969105],[82.2273724276,28.0452157211],[82.2280477056,28.0455705729],[82.2286399339,28.0458292448],[82.2287032998,28.0458692417],[82.2289148313,28.0459689236],[82.2291899796,28.0460702313],[82.2297017852,28.0461355446],[82.2299563114,28.0462167282],[82.2302940136,28.0463941542],[82.230801629,28.0465948935],[82.231227632,28.0466610179],[82.2318226744,28.0468248867],[82.2325818145,28.0472376732],[82.2328343394,28.0474158482],[82.233441061,28.0479428084],[82.2338372494,28.0483497767],[82.2336605817,28.0485768784],[82.2333263042,28.0491416966],[82.233276806,28.0494286682],[82.2331415066,28.04971183],[82.2330246395,28.0501099169],[82.232998015,28.0503402074],[82.2328823986,28.0506819246],[82.2324515639,28.0517031373],[82.232317578,28.0519299274],[82.2322519606,28.0519869224],[82.2319776088,28.0527270375],[82.2314722912,28.0532910416],[82.231384365,28.053384282],[82.2310124702,28.0537214958],[82.2308815481,28.053833234],[82.2304271682,28.0540718922],[82.2302517514,28.054242687],[82.2300995822,28.0543341769],[82.2299244148,28.0545230321],[82.2293172418,28.0548556796],[82.2289906563,28.055097716],[82.2288616093,28.0551507086],[82.2281446976,28.0556150325],[82.2277940518,28.0559723062],[82.2273799761,28.0562895842],[82.2270288296,28.0566649821],[82.2268107935,28.0568315877],[82.226568196,28.0571337453],[82.2263299762,28.0572622306],[82.2261989911,28.0573739678],[82.2259343959,28.0576943721],[82.2255415055,28.0580317735],[82.2251716761,28.0582719339],[82.2243072228,28.0586766345],[82.2238486528,28.0590507195],[82.2236544899,28.0591426454],[82.2232622246,28.0594213638],[82.2228725237,28.0596436503],[82.222544438,28.0599241204],[82.2221490457,28.0603742613],[82.2217332191,28.0607682201],[82.2214501283,28.0609737584],[82.2212769621,28.0610654997],[82.2211459793,28.0611772358],[82.2202807753,28.0615819364],[82.2200197444,28.0617669785],[82.2198438276,28.0619557711],[82.2194956202,28.0621979958],[82.2189757472,28.0624936476],[82.2187146539,28.0626786888],[82.2181945314,28.0629562191],[82.2179088768,28.0632746226],[82.2175807912,28.0635549684],[82.217149283,28.0637392578],[82.2164416906,28.0638019288],[82.2163115817,28.063875296],[82.2159608092,28.0642325706],[82.2152024041,28.0646385849],[82.2147461472,28.0649358641],[82.2145262988,28.0651791514],[82.2144375578,28.0653108256],[82.2143036335,28.0655578631],[82.2140614113,28.0658397719],[82.2138649347,28.0660084408],[82.2136917692,28.0661001799],[82.2129501708,28.0666976773],[82.2127983149,28.0667712939],[82.2126239609,28.0669194656],[82.2124066747,28.0670499506],[82.211948668,28.0674239723],[82.2116233337,28.0676095757],[82.2113642414,28.0676998128],[82.2109778549,28.0677686771],[82.2102096476,28.0676964849],[82.2094393755,28.0677213461],[82.2091203567,28.067676846],[82.2084831338,28.0674928531],[82.2075891957,28.0673247946],[82.2072093115,28.0671251191],[82.2071881276,28.067107245],[82.2069587883,28.0668926997],[82.2065757162,28.0668080765],[82.2063799922,28.0668165724],[82.2059332397,28.0668363143],[82.205230149,28.0667274408],[82.2042627132,28.0669209093],[82.2037635252,28.0671982511],[82.2034906213,28.0673562947],[82.2030256792,28.0676242641],[82.2025041817,28.0679582259],[82.2022447766,28.0680687749],[82.2021347267,28.0681802631],[82.2020189862,28.0685219175],[82.2019276819,28.068768582],[82.2019251177,28.0688836956],[82.2020675924,28.069173421],[82.2024440364,28.0695220202],[82.2030113266,28.0699344278],[82.2034507605,28.0703433963],[82.20464996,28.0711472149],[82.2056647513,28.0716616815],[82.2060654424,28.0718972925],[82.2063795838,28.0721313999],[82.2066950368,28.0723676941],[82.2077887504,28.0731138936],[82.2080825817,28.0733480629],[82.2081235117,28.0734244323],[82.2084370267,28.0737172222],[82.2086475594,28.0738349023],[82.2087302331,28.0739514551],[82.2089400767,28.0741278164],[82.2095284271,28.0745399741],[82.209863002,28.0748325776],[82.210070157,28.0751036804],[82.2104471003,28.0754342186],[82.2105715177,28.0755887686],[82.210651629,28.0758204362],[82.2108183533,28.0759949226],[82.2112162928,28.0763275228],[82.2113006554,28.0763673962],[82.211551867,28.0765997528],[82.2116551628,28.0767364296],[82.2123456847,28.0773597574],[82.2128681047,28.0779032774],[82.2130370792,28.0780010836],[82.2135181305,28.078486421],[82.2142768321,28.0789961978],[82.2144646153,28.0791908074],[82.2145496039,28.0792306803],[82.2152426879,28.0797952638],[82.2153676057,28.0799317524],[82.2156841211,28.0801454875],[82.2158940271,28.0803217864],[82.2160827493,28.0804780865],[82.2162316028,28.0805377103],[82.2163371498,28.0805953934],[82.2167785843,28.0809479297],[82.2171804004,28.0811654155],[82.2177061981,28.0815555117],[82.2182544933,28.0819071127],[82.2188415914,28.0824342595],[82.2189872556,28.0826066845],[82.2191317318,28.082839979],[82.2197406402,28.083436869],[82.2198434987,28.0835374865],[82.2204965878,28.084102382],[82.2212665885,28.0852189784],[82.2215127967,28.0857378719],[82.221908483,28.0863140126],[82.2221146973,28.0867182906],[82.2225110102,28.0872381242],[82.2227801527,28.0877004607],[82.2228418301,28.0878149508],[82.2230709168,28.0881625479],[82.2237777405,28.0892029622],[82.2240258872,28.0896631741],[82.2242969066,28.090010458],[82.2244210103,28.0902416893],[82.2246710327,28.0905891606],[82.2252162617,28.0911684906],[82.2259317789,28.0917892559],[82.2261826145,28.0920982946],[82.2268979434,28.0927596197],[82.2269609956,28.0928177401],[82.2274236754,28.0932443956],[82.2277618769,28.0934579413],[82.2284578972,28.0939840921],[82.2286470564,28.0941787027],[82.2287314823,28.0942185119],[82.2294681841,28.0948593387],[82.2298253165,28.0952261224],[82.2301209599,28.0954400453],[82.2303724841,28.0956926501],[82.2307310548,28.095964694],[82.2314499513,28.0964342232],[82.2320439269,28.0967108317],[82.2322982031,28.0968686956],[82.2332321312,28.0972844214],[82.2338036744,28.0975995882],[82.2341208777,28.0978133235],[82.2346289911,28.0980884931],[82.2349458197,28.0983224753],[82.2355173622,28.098637642],[82.2356240344,28.0986773276],[82.2363057517,28.0988403224],[82.2368172429,28.0989643187],[82.2372422452,28.0991431837],[82.2394535571,28.099924081],[82.2403899888,28.100224629],[82.2409862805,28.1003681252],[82.2419255265,28.1005175624],[82.2428635828,28.1007436794],[82.2432032853,28.1008623613],[82.2434594998,28.1009051742],[82.2446517077,28.1012688447],[82.2455653276,28.1016281998],[82.2456286936,28.1016660095],[82.245987765,28.1019199292],[82.2462418531,28.1020574828],[82.2464323875,28.1021932854],[82.2465595578,28.1022530947],[82.2472777638,28.1027608706],[82.2478246195,28.1032454589],[82.2478670492,28.1032856434],[82.2479512244,28.1033615764],[82.2480403373,28.1034216972],[82.2483730998,28.1036509932],[82.248690365,28.1039210976],[82.2489852565,28.1042319484],[82.2492192222,28.1043877494],[82.2495361117,28.1046781034],[82.2500824632,28.1053362993],[82.2505847572,28.1060896762],[82.2507927228,28.1064758315],[82.2509986857,28.1069566654],[82.2509956205,28.1071303998],[82.2509671792,28.1075322379],[82.2508219951,28.1084494015],[82.2508374866,28.1087943702],[82.2507614845,28.1094831179],[82.2506929267,28.1097115965],[82.2506361079,28.1105151473],[82.2505909864,28.1106305732],[82.2506286633,28.1109189855],[82.2507533918,28.1111502786],[82.250637963,28.1116069856],[82.250688628,28.1124118496],[82.2515146706,28.114260818],[82.2517451338,28.1146083517],[82.2518063092,28.1147815238],[82.2518440493,28.1150699367],[82.252171551,28.1159940434],[82.2525039315,28.1166294275],[82.2527263867,28.1174371697],[82.2529129804,28.1177829526],[82.2532689229,28.1183052858],[82.2534746982,28.1188244902],[82.2536526586,28.1196891012],[82.2536891474,28.1200903155],[82.2537491114,28.121580868],[82.2537690449,28.1216573618],[82.2534479648,28.1216151726],[82.2527426254,28.1214005571],[82.2514603044,28.1210806307],[82.2507557163,28.1208231446],[82.2500502521,28.1206603991],[82.2492820472,28.1204034737],[82.24870394,28.1203004748],[82.2480632168,28.1201190456],[82.2480402201,28.1201124207],[82.2477536976,28.1200316727],[82.2466714787,28.1195181427],[82.2457772283,28.1192555912],[82.2443771169,28.1185847576],[82.2439299933,28.1184241411],[82.2429636204,28.1185795505],[82.2423821957,28.1187404651],[82.2422102185,28.1187758978],[82.2417369057,28.118881693],[82.2412195352,28.1190262346],[82.2408322728,28.1190951608],[82.2404459497,28.1191279644],[82.240061253,28.1190840254],[82.2397420479,28.1189832184],[82.2393596021,28.1188061652],[82.2388528648,28.1184363181],[82.2386852667,28.1182415829],[82.2384945435,28.1181440271],[82.2383468779,28.1180257229],[82.2380281101,28.117906854],[82.2379210635,28.1178875425],[82.237559177,28.1177847957],[82.2371096126,28.1177414807],[82.2367043557,28.1176774188],[82.2364691388,28.1176344193],[82.2361486819,28.1175922304],[82.2360844414,28.117590543],[82.2353343547,28.1175792199],[82.2343684213,28.1176578875],[82.233981035,28.1177673715],[82.2332028213,28.1180789572],[82.232553402,28.1184118551],[82.232424044,28.11844685],[82.2319683506,28.118705882],[82.2315797129,28.1188717988],[82.2303493705,28.1193091801],[82.229698389,28.1196804486],[82.2295029756,28.1198288688],[82.2279463613,28.1204902241],[82.2274284904,28.1206550138],[82.2267836369,28.1207781187],[82.2263955623,28.1208853527],[82.2255576744,28.1209853321],[82.224846705,28.1211653679],[82.2242040409,28.1211552967],[82.2240125048,28.1210938627],[82.2236943642,28.1209184994],[82.2231210713,28.1206800128],[82.2228651067,28.1205988287],[82.2222872476,28.1205723859],[82.2213189374,28.1207840397],[82.2209977308,28.120780099],[82.2206750851,28.1208303384],[82.2195807947,28.1208716945],[82.2193229538,28.1209055002],[82.2186803538,28.1208954928],[82.2174632089,28.1207033048],[82.2169489036,28.1206762371],[82.2166263211,28.1207287277],[82.2160477116,28.1207384064],[82.215660825,28.1207892084],[82.2147571932,28.1209844282],[82.2143708079,28.1210149196],[82.2137282074,28.1210048483],[82.2128943211,28.1208971593],[82.2124449447,28.1208695932],[82.2109023409,28.1208651337],[82.2098752303,28.1207726903],[82.2087151972,28.120904786],[82.2081337105,28.1210677634],[82.2077439472,28.1212516792],[82.2077000151,28.1213085479],[82.2076979496,28.1214032265],[82.2077399443,28.1214615344],[82.2080148414,28.1216373344],[82.2083730369,28.1219296878],[82.2090231248,28.1226074476],[82.2096863904,28.1237227308],[82.2099371019,28.1240137697],[82.2106317462,28.1246347852],[82.2114053836,28.1250994418],[82.211460438,28.1251327513],[82.2115883565,28.1251903112],[82.2116944038,28.1252863658],[82.2120139818,28.12547979],[82.2124608527,28.1257893937],[82.2129310999,28.1259656966],[82.213081142,28.1259688859],[82.213488588,28.1259337069],[82.2138117337,28.1258225351],[82.2143268529,28.1257526105],[82.2147771051,28.1257373058],[82.2153545862,28.1258968627],[82.2156744162,28.1260519151],[82.2163159501,28.1262492815],[82.2165074844,28.1263648986],[82.2165717261,28.126366587],[82.2168281268,28.126481581],[82.2173419946,28.1265266458],[82.2179221685,28.1264177265],[82.2181791962,28.1264199804],[82.2187589948,28.1263313707],[82.2192086817,28.1264311191],[82.2197624143,28.1267420353],[82.2199753195,28.1268957748],[82.220230093,28.1271460671],[82.2205892227,28.1276843356],[82.220779694,28.1278766335],[82.2209926615,28.1280304349],[82.2215011456,28.1286078894],[82.2219224509,28.1292988944],[82.2220494932,28.1294511951],[82.2224047419,28.1303706782],[82.2225062185,28.130904381],[82.2225900157,28.131057056],[82.2227813617,28.1312696021],[82.2229063397,28.1315753256],[82.2229226406,28.132109777],[82.2230873565,28.1327219112],[82.2232142117,28.1329125207],[82.2232563912,28.1329888262],[82.2234223602,28.1334859709],[82.2236420534,28.1350133967],[82.2239103731,28.1360080596],[82.2239947975,28.1361607342],[82.2243047356,28.1372317024],[82.2245470523,28.1386823228],[82.2245215479,28.1390637265],[82.2241090947,28.1395546759],[82.2240217281,28.1397065975],[82.2238882385,28.1401634916],[82.2239062935,28.1404678387],[82.2239680929,28.1406973808],[82.224200304,28.1410810993],[82.2243914008,28.1412733972],[82.2244760133,28.1413312682],[82.2248273795,28.1426297173],[82.2248419283,28.1432409117],[82.2247712393,28.1438506673],[82.224682497,28.1441559496],[82.2245513853,28.1443827399],[82.2244410186,28.1446882731],[82.2243949572,28.1449931829],[82.2244108845,28.1454509527],[82.224639089,28.1462159487],[82.2248269305,28.146676659],[82.2251213188,28.1472131765],[82.2259673086,28.1483673957],[82.2265407842,28.1488856069],[82.2265830269,28.1489641625],[82.2269014792,28.1492726395],[82.227540636,28.1496391145],[82.2281819823,28.1498544169],[82.2284588166,28.1500865869],[82.2287335861,28.1504134363],[82.2288603149,28.1506424166],[82.2289014936,28.1507954655],[82.2291315777,28.1513324824],[82.2291946928,28.1514492223],[82.2295321998,28.1519853657],[82.2299132017,28.1524669528],[82.2306146584,28.1531013415],[82.2311251446,28.1535072493],[82.2313807938,28.1536628641],[82.231573017,28.153719799],[82.2317652399,28.1538376028],[82.2318294813,28.1538370423],[82.2321491836,28.154030341],[82.2332035267,28.1548600926],[82.2332765792,28.1549000279],[82.2333405688,28.1549378385],[82.2338519322,28.1552490042],[82.2341726999,28.1553656854],[82.2355198235,28.1557573557],[82.2359676947,28.1560285255],[82.2363498871,28.1563949974],[82.2366432741,28.1570081959],[82.2367238778,28.1575443355],[82.236870165,28.1578701201],[82.237188679,28.1581785339],[82.2372956004,28.1582362175],[82.237401522,28.1583706437],[82.2376742874,28.1589072858],[82.237886316,28.1591941381],[82.2380752834,28.1595781685],[82.2380728419,28.1598082725],[82.2380040322,28.1601901113],[82.2378706049,28.1606470047],[82.237783238,28.1607989273],[82.237567327,28.1609497863],[82.2372424912,28.161252753],[82.2371339401,28.1613845535],[82.2370886299,28.1615947821],[82.2371018637,28.1623593375],[82.2371842847,28.1626653725],[82.2371804036,28.1630466505],[82.2371122193,28.1634284885],[82.2372973053,28.1641937967],[82.2375285143,28.1646541957],[82.2378462156,28.1649986696],[82.237908016,28.1652282118],[82.2378531277,28.1663746683],[82.2377863824,28.1666031463],[82.2376858926,28.1667641935],[82.2373714885,28.1672678299],[82.2371726934,28.1677997159],[82.2370639552,28.1679698858],[82.2370398298,28.1681979278],[82.2370800069,28.1684276575],[82.237036512,28.1684641523],[82.2369922654,28.1685976403],[82.2370721826,28.1691315921],[82.2373641917,28.1698959026],[82.2375325385,28.1702034388],[82.237593337,28.1705074118],[82.2378877252,28.1710438664],[82.2380326967,28.1715230745],[82.2385211851,28.1719449794],[82.2388414524,28.172120282],[82.2390336755,28.1721794667],[82.2394836756,28.1722385927],[82.2398042559,28.1723371511],[82.239997355,28.1723579643],[82.2401893883,28.1724555203],[82.2404459154,28.1725140809],[82.240765306,28.172725504],[82.240936095,28.1728028743],[82.2411487508,28.1729769232],[82.2412759175,28.1731314102],[82.2414020212,28.1733603917],[82.2416093545,28.174123201],[82.2417145236,28.1743523683],[82.2418181907,28.1747348969],[82.2419442938,28.1749638164],[82.2427521053,28.1758656201],[82.2434534363,28.1765765657],[82.2436439047,28.1768636047],[82.2437486352,28.1771694526],[82.2437653741,28.1776272232],[82.2437111107,28.1787691182],[82.2436213034,28.1791488954],[82.2435513647,28.1797586507],[82.2433536327,28.1802138557],[82.2432854478,28.1805956948],[82.2433011864,28.1811278969],[82.2434044143,28.1815871683],[82.2436147523,28.1820454422],[82.2435920655,28.18212006],[82.2438211461,28.1828849929],[82.2437965813,28.183189715],[82.2440683435,28.1839542116],[82.2439795995,28.1842573072],[82.2438706118,28.1844094164],[82.2438873513,28.1848672496],[82.2437538605,28.1853218317],[82.2437726649,28.1856284903],[82.243661236,28.1860084547],[82.2435062475,28.1864835962],[82.2435059351,28.1865016581],[82.2434598101,28.186862998],[82.2432812587,28.1875481202],[82.2432798181,28.1877014817],[82.2431673257,28.1881559383],[82.2429471567,28.1887647543],[82.2429240951,28.1889161159],[82.2429125123,28.1900598855],[82.242975,28.1902894285],[82.2429735602,28.1904406009],[82.2431597097,28.1911291669],[82.2433295581,28.1913396494],[82.2437529886,28.1920102824],[82.2439017789,28.1921623327],[82.2439223999,28.1922388262],[82.2441555497,28.192527741],[82.2445987878,28.1933696083],[82.245105265,28.1942876552],[82.2451686283,28.1944201446],[82.2454205839,28.1949750348],[82.2456051063,28.195891453],[82.2459844161,28.1966550133],[82.2462128708,28.1974198848],[82.2464654511,28.1979544647],[82.2467833386,28.1984139888],[82.2478432479,28.1989660164],[82.2480385335,28.1990093901],[82.2481118979,28.1990245143],[82.2486510625,28.199732395],[82.2488244057,28.2001346111],[82.2488259586,28.2006511881],[82.2488916935,28.2009957201],[82.2488716254,28.2014560526],[82.2489156777,28.2016857821],[82.2489194088,28.2027188751],[82.2489635223,28.2030072247],[82.2489246319,28.2041558071],[82.2488611335,28.2044992112],[82.248648839,28.2050741561],[82.2486069647,28.205361004],[82.2486077735,28.2055911081],[82.2486959386,28.2061654935],[82.2486325039,28.2065112745],[82.248292406,28.2074865556],[82.248038312,28.2077009686],[82.247547245,28.208115987],[82.2474171319,28.2084262069],[82.2473713234,28.2085348836],[82.2474271124,28.2093938686],[82.2476590723,28.2099083251],[82.2477865519,28.2100808728],[82.2477904832,28.2103650342],[82.248038636,28.2104642785],[82.2482138615,28.2105325877],[82.2485802456,28.2107232631],[82.2492693978,28.2109718751],[82.2500880271,28.211564458],[82.2511657389,28.2125381342],[82.2515753629,28.2129990355],[82.2517694582,28.2131507118],[82.2523729276,28.2138015974],[82.2526531978,28.2140313936],[82.2529766468,28.2144141764],[82.2532136095,28.2147570853],[82.2533863301,28.2150442489],[82.2533865131,28.2153330349],[82.2533441362,28.2157349352],[82.2531940863,28.216137895],[82.2527646975,28.2166560926],[82.2519909759,28.217405325],[82.2517332533,28.2178069724],[82.2516048904,28.2180968805],[82.251088766,28.2184422171],[82.2505727026,28.2189026062],[82.2500994486,28.2192114447],[82.2500353937,28.2192301296],[82.24986298,28.2191910686],[82.2496687581,28.2190778269],[82.2490871591,28.2185620524],[82.2488713805,28.2182933245],[82.2486123635,28.2177565567],[82.2482706046,28.2173287789],[82.2480384487,28.2173488985],[82.2480200122,28.2173513983],[82.2477386731,28.2175208788],[82.2476503053,28.2177495439],[82.2476857231,28.2186064034],[82.2476752034,28.219729863],[82.2475840181,28.2202608122],[82.247473214,28.2206430889],[82.2474276528,28.2208893781],[82.2470953671,28.2218781579],[82.2470304368,28.2219352141],[82.2465911036,28.2229226794],[82.246545981,28.2231508458],[82.2462804405,28.2239112727],[82.2461487024,28.2241944321],[82.2458000531,28.2247074426],[82.2453610954,28.2256182906],[82.2447168297,28.227823517],[82.244628839,28.2279754385],[82.244517972,28.2283554657],[82.244516594,28.2285088257],[82.2444267242,28.2288886654],[82.2442271136,28.2295739743],[82.2442026117,28.2298763843],[82.2442758265,28.2312473219],[82.2443739203,28.2322389823],[82.2445393845,28.2329999158],[82.2445547452,28.2336088597],[82.2443494377,28.2349033004],[82.2443182357,28.2358915856],[82.2442063674,28.236348292],[82.2441592396,28.2368427458],[82.2441359897,28.2370324784],[82.2441113009,28.2373191381],[82.2440667406,28.2374909976],[82.2439779964,28.2377940306],[82.2438909456,28.2378692725],[82.2440847935,28.2378900855],[82.244725657,28.2382921785],[82.2447262616,28.2382925583],[82.2451096389,28.2387312109],[82.2453871605,28.2389429447],[82.2460952491,28.2391553118],[82.2464178921,28.2391952504],[82.2471261683,28.2393693062],[82.2473842574,28.2393894337],[82.2478876878,28.2395269908],[82.2480375432,28.2394917465],[82.2483658751,28.2394143197],[82.2486242154,28.2393938881],[82.2488822451,28.239296839],[82.2493124373,28.2392770974],[82.2496568946,28.2391047422],[82.2500015365,28.2390068804],[82.2501735136,28.2390075709],[82.2512504868,28.2393496176],[82.2515948142,28.2393870572],[82.2520257545,28.2394823666],[82.2524564458,28.2395009966],[82.2528005858,28.2395767443],[82.2536620958,28.239517012],[82.2540945732,28.2395489503],[82.2541784002,28.2395551409],[82.2552978122,28.2395515948],[82.2559009773,28.2396656557],[82.256245991,28.239818084],[82.2563319164,28.2398173369],[82.2565901295,28.2399502644],[82.2567416054,28.2401609341],[82.2567421582,28.240697823],[82.2568506386,28.240985548],[82.2569366872,28.2410997898],[82.2569585517,28.2415033774],[82.2569605698,28.241514034],[82.2570237857,28.2418479087],[82.2573484144,28.2427088975],[82.257348538,28.24282395],[82.2576289914,28.2432251667],[82.2578876403,28.2434550868],[82.258211031,28.2436077646],[82.2584696207,28.2436640751],[82.2602778726,28.2438526468],[82.2613542575,28.2437300062],[82.2616560641,28.2436956186],[82.2621721863,28.2435035808],[82.2625164529,28.2434259684],[82.2630333208,28.2434640347],[82.2632919093,28.2435203459],[82.2642388444,28.2435183591],[82.2646698468,28.2436135443],[82.2647776442,28.2436306699],[82.2650361073,28.2437275395],[82.2659671016,28.2440866199],[82.2660698987,28.2441262681],[82.2668458493,28.2445273667],[82.2678580795,28.2449849032],[82.2682888933,28.2451185214],[82.2688921841,28.2452505183],[82.2690641618,28.245251146],[82.2695811521,28.2453456444],[82.2700730893,28.2454537863],[82.2706148837,28.245572889],[82.2710456983,28.2457064451],[82.2719938129,28.2460676125],[82.2722527133,28.2462027913],[82.2725108642,28.2462771017],[82.2730281658,28.2465069002],[82.2733726149,28.2467156979],[82.2739339038,28.2472721557],[82.2739725789,28.2473314459],[82.2740202026,28.247404457],[82.2743647754,28.2477305571],[82.2744083932,28.247806925],[82.2747099738,28.2479980375],[82.2749039437,28.2481879605],[82.2753781881,28.2484361947],[82.2759814797,28.2485117591],[82.2761534571,28.2485124491],[82.2764546655,28.2485118914],[82.276562277,28.2485108927],[82.2767558769,28.2484526507],[82.2769281061,28.2483179769],[82.2770026289,28.2482873341],[82.2774445406,28.2481056301],[82.2781333239,28.24797059],[82.2783916653,28.2479501577],[82.2784778423,28.2479109748]]]}}]}